IRIDIUM 39              
1 25042U 97069D   25262.16763744  .00000600  00000+0  15154-3 0  9993
2 25042  86.3986 170.8785 0017890   0.3485 359.7728 14.49330350462573
IRIDIUM 38              
1 25043U 97069E   25262.23819169  .00000488  00000+0  15417-3 0  9991
2 25043  86.4024 193.6099 0003547 114.7347 245.4221 14.38194119459473
IRIDIUM 42              
1 25077U 97077A   25261.94204933  .00000435  00000+0  14168-3 0  9995
2 25077  86.4019 200.0119 0002454 104.2710 255.8760 14.36423120454657
IRIDIUM 44              
1 25078U 97077B   25261.92130828  .00000428  00000+0  12878-3 0  9993
2 25078  86.4036 181.7220 0004116  82.9958 277.1709 14.40318226457195
IRIDIUM 45              
1 25104U 97082A   25262.22007363  .00016445  00000+0  54020-3 0  9991
2 25104  86.3624   2.1199 0107868 339.2950  20.3939 15.25879206466362
IRIDIUM 24              
1 25105U 97082B   25261.91225443  .00000556  00000+0  16284-3 0  9994
2 25105  86.3910  40.5157 0013188 122.9640 237.2830 14.42187103456729
IRIDIUM 51              
1 25262U 98018A   25261.82577802  .00050580  00000+0  90895-3 0  9999
2 25262  86.3857   9.2406 0074116 247.6234 111.7159 15.46581894461461
IRIDIUM 57              
1 25273U 98019B   25262.03885424  .00000319  00000+0  10323-3 0  9991
2 25273  86.3912 105.9334 0002212  90.3895 269.7555 14.35949713438253
